{"type": "FeatureCollection", "features": [ {"type": "Feature", "properties": {"norad_id": 34690, "name": "IRIDIUM 33 DEB", "group": "iridium-33-debris", "lat": 67.42552521394948, "lon": -146.7397264482797, "alt_km": 697.2448873004096, "timestamp": "2025-12-01T03:58:49.184054+00:00", "meta": {"OBJECT_NAME": "IRIDIUM 33 DEB", "OBJECT_ID": "1997-051KM", "EPOCH": "2025-11-30T04:29:28.709376", "MEAN_MOTION": 14.55018885, "ECCENTRICITY": 0.00120076, "INCLINATION": 86.3793, "RA_OF_ASC_NODE": 42.4459, "ARG_OF_PERICENTER": 66.3956, "MEAN_ANOMALY": 322.5053, "EPHEMERIS_TYPE": 0, "CLASSIFICATION_TYPE": "U", "NORAD_CAT_ID": 34690, "ELEMENT_SET_NO": 999, "REV_AT_EPOCH": 87912, "BSTAR": 0.00049664139, "MEAN_MOTION_DOT": 2.161e-05, "MEAN_MOTION_DDOT": 0, "GROUP": "iridium-33-debris"}, "tle": {"line1": "1 34690U 97051KM  25334.18713784  .00002161  00000+0  49664-3 0  9991", "line2": "2 34690  86.3793  42.4459 0012007  66.3956 322.5053 14.55018885879125"}}, "geometry": {"type": "Point", "coordinates": [-146.7397264482797, 67.42552521394948]}}, {"type": "Feature", "properties": {"norad_id": 34693, "name": "IRIDIUM 33 DEB", "group": "iridium-33-debris", "lat": 85.2233993251383, "lon": 78.90347140451541, "alt_km": 476.0539123274175, "timestamp": "2025-12-01T03:58:49.184064+00:00", "meta": {"OBJECT_NAME": "IRIDIUM 33 DEB", "OBJECT_ID": "1997-051KQ", "EPOCH": "2025-11-30T17:18:16.744032", "MEAN_MOTION": 15.23920346, "ECCENTRICITY": 0.0016089, "INCLINATION": 86.3053, "RA_OF_ASC_NODE": 309.776, "ARG_OF_PERICENTER": 72.3286, "MEAN_ANOMALY": 101.884, "EPHEMERIS_TYPE": 0, "CLASSIFICATION_TYPE": "U", "NORAD_CAT_ID": 34693, "ELEMENT_SET_NO": 999, "REV_AT_EPOCH": 88731, "BSTAR": 0.0044008, "MEAN_MOTION_DOT": 0.00108063, "MEAN_MOTION_DDOT": 0, "GROUP": "iridium-33-debris"}, "tle": {"line1": "1 34693U 97051KQ  25334.72102713  .00108063  00000+0  44008-2 0  9992", "line2": "2 34693  86.3053 309.7760 0016089  72.3286 101.8840 15.23920346887310"}}, "geometry": {"type": "Point", "coordinates": [78.90347140451541, 85.2233993251383]}}, {"type": "Feature", "properties": {"norad_id": 34696, "name": "IRIDIUM 33 DEB", "group": "iridium-33-debris", "lat": -34.19018166057253, "lon": -144.50078305788327, "alt_km": 633.9710299642975, "timestamp": "2025-12-01T03:58:49.184074+00:00", "meta": {"OBJECT_NAME": "IRIDIUM 33 DEB", "OBJECT_ID": "1997-051KT", "EPOCH": "2025-11-30T16:07:11.556192", "MEAN_MOTION": 14.64008092, "ECCENTRICITY": 0.0075036, "INCLINATION": 86.1863, "RA_OF_ASC_NODE": 33.1313, "ARG_OF_PERICENTER": 208.261, "MEAN_ANOMALY": 282.8856, "EPHEMERIS_TYPE": 0, "CLASSIFICATION_TYPE": "U", "NORAD_CAT_ID": 34696, "ELEMENT_SET_NO": 999, "REV_AT_EPOCH": 86496, "BSTAR": 0.0060492, "MEAN_MOTION_DOT": 0.00033167, "MEAN_MOTION_DDOT": 0, "GROUP": "iridium-33-debris"}, "tle": {"line1": "1 34696U 97051KT  25334.67166153  .00033167  00000+0  60492-2 0  9994", "line2": "2 34696  86.1863  33.1313 0075036 208.2610 282.8856 14.64008092864962"}}, "geometry": {"type": "Point", "coordinates": [-144.50078305788327, -34.19018166057253]}}, {"type": "Feature", "properties": {"norad_id": 34765, "name": "IRIDIUM 33 DEB", "group": "iridium-33-debris", "lat": 29.032490395797396, "lon": 39.763135577564576, "alt_km": 763.2275551004423, "timestamp": "2025-12-01T03:58:49.184084+00:00", "meta": {"OBJECT_NAME": "IRIDIUM 33 DEB", "OBJECT_ID": "1997-051LJ", "EPOCH": "2025-11-30T15:06:14.888736", "MEAN_MOTION": 14.40412596, "ECCENTRICITY": 0.0014472, "INCLINATION": 86.3402, "RA_OF_ASC_NODE": 37.9573, "ARG_OF_PERICENTER": 255.1859, "MEAN_ANOMALY": 233.6066, "EPHEMERIS_TYPE": 0, "CLASSIFICATION_TYPE": "U", "NORAD_CAT_ID": 34765, "ELEMENT_SET_NO": 999, "REV_AT_EPOCH": 87439, "BSTAR": 0.00044217, "MEAN_MOTION_DOT": 1.424e-05, "MEAN_MOTION_DDOT": 0, "GROUP": "iridium-33-debris"}, "tle": {"line1": "1 34765U 97051LJ  25334.62933899  .00001424  00000+0  44217-3 0  9994", "line2": "2 34765  86.3402  37.9573 0014472 255.1859 233.6066 14.40412596874390"}}, "geometry": {"type": "Point", "coordinates": [39.763135577564576, 29.032490395797396]}}, {"type": "Feature", "properties": {"norad_id": 34833, "name": "IRIDIUM 33 DEB", "group": "iridium-33-debris", "lat": 0.12542924108792053, "lon": 55.98820043612621, "alt_km": 731.838718380257, "timestamp": "2025-12-01T03:58:49.184109+00:00", "meta": {"OBJECT_NAME": "IRIDIUM 33 DEB", "OBJECT_ID": "1997-051MH", "EPOCH": "2025-11-30T10:22:57.552384", "MEAN_MOTION": 14.52251765, "ECCENTRICITY": 0.00213958, "INCLINATION": 86.3935, "RA_OF_ASC_NODE": 56.2961, "ARG_OF_PERICENTER": 136.5058, "MEAN_ANOMALY": 352.9352, "EPHEMERIS_TYPE": 0, "CLASSIFICATION_TYPE": "U", "NORAD_CAT_ID": 34833, "ELEMENT_SET_NO": 999, "REV_AT_EPOCH": 87536, "BSTAR": 0.00093917879, "MEAN_MOTION_DOT": 3.844e-05, "MEAN_MOTION_DDOT": 0, "GROUP": "iridium-33-debris"}, "tle": {"line1": "1 34833U 97051MH  25334.43261056  .00003844  00000+0  93918-3 0  9998", "line2": "2 34833  86.3935  56.2961 0021395 136.5058 352.9352 14.52251765875360"}}, "geometry": {"type": "Point", "coordinates": [55.98820043612621, 0.12542924108792053]}}, {"type": "Feature", "properties": {"norad_id": 34870, "name": "IRIDIUM 33 DEB", "group": "iridium-33-debris", "lat": 56.89600162097987, "lon": -34.935401556014305, "alt_km": 646.6829429606114, "timestamp": "2025-12-01T03:58:49.184120+00:00", "meta": {"OBJECT_NAME": "IRIDIUM 33 DEB", "OBJECT_ID": "1997-051MQ", "EPOCH": "2025-11-29T10:06:37.906848", "MEAN_MOTION": 14.76010131, "ECCENTRICITY": 0.00147045, "INCLINATION": 86.3103, "RA_OF_ASC_NODE": 320.1829, "ARG_OF_PERICENTER": 234.4895, "MEAN_ANOMALY": 278.6095, "EPHEMERIS_TYPE": 0, "CLASSIFICATION_TYPE": "U", "NORAD_CAT_ID": 34870, "ELEMENT_SET_NO": 999, "REV_AT_EPOCH": 88714, "BSTAR": 0.0014623803, "MEAN_MOTION_DOT": 0.00010114, "MEAN_MOTION_DDOT": 0, "GROUP": "iridium-33-debris"}, "tle": {"line1": "1 34870U 97051MQ  25333.42127207  .00010114  00000+0  14624-2 0  9990", "line2": "2 34870  86.3103 320.1829 0014704 234.4895 278.6095 14.76010131887140"}}, "geometry": {"type": "Point", "coordinates": [-34.935401556014305, 56.89600162097987]}}, {"type": "Feature", "properties": {"norad_id": 34896, "name": "IRIDIUM 33 DEB", "group": "iridium-33-debris", "lat": -42.936363730820226, "lon": -31.54720584985432, "alt_km": 671.6166166611983, "timestamp": "2025-12-01T03:58:49.184130+00:00", "meta": {"OBJECT_NAME": "IRIDIUM 33 DEB", "OBJECT_ID": "1997-051MY", "EPOCH": "2025-11-28T17:59:37.974912", "MEAN_MOTION": 14.66055051, "ECCENTRICITY": 0.00237461, "INCLINATION": 86.3294, "RA_OF_ASC_NODE": 332.9598, "ARG_OF_PERICENTER": 266.6712, "MEAN_ANOMALY": 266.6276, "EPHEMERIS_TYPE": 0, "CLASSIFICATION_TYPE": "U", "NORAD_CAT_ID": 34896, "ELEMENT_SET_NO": 999, "REV_AT_EPOCH": 87414, "BSTAR": 0.00096599733, "MEAN_MOTION_DOT": 5.342e-05, "MEAN_MOTION_DDOT": 0, "GROUP": "iridium-33-debris"}, "tle": {"line1": "1 34896U 97051MY  25332.74974508  .00005342  00000+0  96600-3 0  9998", "line2": "2 34896  86.3294 332.9598 0023746 266.6712 266.6276 14.66055051874147"}}, "geometry": {"type": "Point", "coordinates": [-31.54720584985432, -42.936363730820226]}}, {"type": "Feature", "properties": {"norad_id": 34926, "name": "IRIDIUM 33 DEB", "group": "iridium-33-debris", "lat": -9.651722238727753, "lon": -165.70562151368404, "alt_km": 761.6746977041821, "timestamp": "2025-12-01T03:58:49.184143+00:00", "meta": {"OBJECT_NAME": "IRIDIUM 33 DEB", "OBJECT_ID": "1997-051NF", "EPOCH": "2025-11-29T13:48:21.407328", "MEAN_MOTION": 14.53524599, "ECCENTRICITY": 0.00773936, "INCLINATION": 86.1329, "RA_OF_ASC_NODE": 14.3714, "ARG_OF_PERICENTER": 337.5637, "MEAN_ANOMALY": 174.5809, "EPHEMERIS_TYPE": 0, "CLASSIFICATION_TYPE": "U", "NORAD_CAT_ID": 34926, "ELEMENT_SET_NO": 999, "REV_AT_EPOCH": 86265, "BSTAR": 0.0044877606, "MEAN_MOTION_DOT": 0.00019535, "MEAN_MOTION_DDOT": 0, "GROUP": "iridium-33-debris"}, "tle": {"line1": "1 34926U 97051NF  25333.57524777  .00019535  00000+0  44878-2 0  9991", "line2": "2 34926  86.1329  14.3714 0077393 337.5637 174.5809 14.53524599862656"}}, "geometry": {"type": "Point", "coordinates": [-165.70562151368404, -9.651722238727753]}}, {"type": "Feature", "properties": {"norad_id": 34985, "name": "IRIDIUM 33 DEB", "group": "iridium-33-debris", "lat": 83.20106734486573, "lon": -150.35830330211678, "alt_km": 758.3538020826109, "timestamp": "2025-12-01T03:58:49.184153+00:00", "meta": {"OBJECT_NAME": "IRIDIUM 33 DEB", "OBJECT_ID": "1997-051NR", "EPOCH": "2025-11-30T18:08:50.756064", "MEAN_MOTION": 14.41921613, "ECCENTRICITY": 0.0019796, "INCLINATION": 86.3698, "RA_OF_ASC_NODE": 61.99, "ARG_OF_PERICENTER": 261.7331, "MEAN_ANOMALY": 228.6793, "EPHEMERIS_TYPE": 0, "CLASSIFICATION_TYPE": "U", "NORAD_CAT_ID": 34985, "ELEMENT_SET_NO": 999, "REV_AT_EPOCH": 87002, "BSTAR": 0.00073187, "MEAN_MOTION_DOT": 2.42e-05, "MEAN_MOTION_DDOT": 0, "GROUP": "iridium-33-debris"}, "tle": {"line1": "1 34985U 97051NR  25334.75614301  .00002420  00000+0  73187-3 0  9991", "line2": "2 34985  86.3698  61.9900 0019796 261.7331 228.6793 14.41921613870027"}}, "geometry": {"type": "Point", "coordinates": [-150.35830330211678, 83.20106734486573]}}]}